CCSDS_OMM_VERS = 2.0
CREATION_DATE  = 
ORIGINATOR     = 

OBJECT_NAME    = SL-3 R/B
OBJECT_ID      = 1982-079B
CENTER_NAME    = EARTH
REF_FRAME      = TEME
TIME_SYSTEM    = UTC
MEAN_ELEMENT_THEORY = SGP/SGP4

EPOCH          = 2025-12-03T10:05:06.735840
MEAN_MOTION    = 15.23415126
ECCENTRICITY   = .0026739
INCLINATION    = 81.1457
RA_OF_ASC_NODE = 306.6455
ARG_OF_PERICENTER = 128.8278
MEAN_ANOMALY   = 231.5348

EPHEMERIS_TYPE = 0
CLASSIFICATION_TYPE = U
NORAD_CAT_ID   = 13403
ELEMENT_SET_NO = 999
REV_AT_EPOCH   = 36303
BSTAR          = .31066E-3
MEAN_MOTION_DOT = .7495E-4
MEAN_MOTION_DDOT = 0

CCSDS_OMM_VERS = 2.0
CREATION_DATE  = 
ORIGINATOR     = 

OBJECT_NAME    = SL-14 R/B
OBJECT_ID      = 1982-092B
CENTER_NAME    = EARTH
REF_FRAME      = TEME
TIME_SYSTEM    = UTC
MEAN_ELEMENT_THEORY = SGP/SGP4

EPOCH          = 2025-12-03T11:30:52.382016
MEAN_MOTION    = 14.86540217
ECCENTRICITY   = .0018832
INCLINATION    = 82.5687
RA_OF_ASC_NODE = 231.3711
ARG_OF_PERICENTER = 260.1007
MEAN_ANOMALY   = 272.9721

EPHEMERIS_TYPE = 0
CLASSIFICATION_TYPE = U
NORAD_CAT_ID   = 13553
ELEMENT_SET_NO = 999
REV_AT_EPOCH   = 31463
BSTAR          = .88109E-4
MEAN_MOTION_DOT = .806E-5
MEAN_MOTION_DDOT = 0

CCSDS_OMM_VERS = 2.0
CREATION_DATE  = 
ORIGINATOR     = 

OBJECT_NAME    = SL-3 R/B
OBJECT_ID      = 1983-010B
CENTER_NAME    = EARTH
REF_FRAME      = TEME
TIME_SYSTEM    = UTC
MEAN_ELEMENT_THEORY = SGP/SGP4

EPOCH          = 2025-12-03T12:00:18.913824
MEAN_MOTION    = 15.43071936
ECCENTRICITY   = .00176
INCLINATION    = 81.1027
RA_OF_ASC_NODE = 119.8933
ARG_OF_PERICENTER = 23.0721
MEAN_ANOMALY   = 337.1308

EPHEMERIS_TYPE = 0
CLASSIFICATION_TYPE = U
NORAD_CAT_ID   = 13819
ELEMENT_SET_NO = 999
REV_AT_EPOCH   = 34309
BSTAR          = .40716E-3
MEAN_MOTION_DOT = .18133E-3
MEAN_MOTION_DDOT = 0

CCSDS_OMM_VERS = 2.0
CREATION_DATE  = 
ORIGINATOR     = 

OBJECT_NAME    = SL-3 R/B
OBJECT_ID      = 1983-075B
CENTER_NAME    = EARTH
REF_FRAME      = TEME
TIME_SYSTEM    = UTC
MEAN_ELEMENT_THEORY = SGP/SGP4

EPOCH          = 2025-12-03T11:18:42.354720
MEAN_MOTION    = 15.35841056
ECCENTRICITY   = .0021711
INCLINATION    = 97.6096
RA_OF_ASC_NODE = 333.6461
ARG_OF_PERICENTER = 209.3869
MEAN_ANOMALY   = 150.6155

EPHEMERIS_TYPE = 0
CLASSIFICATION_TYPE = U
NORAD_CAT_ID   = 14208
ELEMENT_SET_NO = 999
REV_AT_EPOCH   = 31537
BSTAR          = .39185E-3
MEAN_MOTION_DOT = .13694E-3
MEAN_MOTION_DDOT = 0

CCSDS_OMM_VERS = 2.0
CREATION_DATE  = 
ORIGINATOR     = 

OBJECT_NAME    = COSMOS 1536
OBJECT_ID      = 1984-013A
CENTER_NAME    = EARTH
REF_FRAME      = TEME
TIME_SYSTEM    = UTC
MEAN_ELEMENT_THEORY = SGP/SGP4

EPOCH          = 2025-12-03T08:12:09.059328
MEAN_MOTION    = 15.22355170
ECCENTRICITY   = .0013211
INCLINATION    = 82.5464
RA_OF_ASC_NODE = 203.4826
ARG_OF_PERICENTER = 262.5776
MEAN_ANOMALY   = 97.3960

EPHEMERIS_TYPE = 0
CLASSIFICATION_TYPE = U
NORAD_CAT_ID   = 14699
ELEMENT_SET_NO = 999
REV_AT_EPOCH   = 25795
BSTAR          = .29234E-3
MEAN_MOTION_DOT = .679E-4
MEAN_MOTION_DDOT = 0

CCSDS_OMM_VERS = 2.0
CREATION_DATE  = 
ORIGINATOR     = 

OBJECT_NAME    = SL-14 R/B
OBJECT_ID      = 1984-027B
CENTER_NAME    = EARTH
REF_FRAME      = TEME
TIME_SYSTEM    = UTC
MEAN_ELEMENT_THEORY = SGP/SGP4

EPOCH          = 2025-12-03T11:08:34.588608
MEAN_MOTION    = 14.85858141
ECCENTRICITY   = .0016531
INCLINATION    = 82.5409
RA_OF_ASC_NODE = 335.2556
ARG_OF_PERICENTER = 294.4813
MEAN_ANOMALY   = 65.4679

EPHEMERIS_TYPE = 0
CLASSIFICATION_TYPE = U
NORAD_CAT_ID   = 14820
ELEMENT_SET_NO = 999
REV_AT_EPOCH   = 23334
BSTAR          = .92105E-4
MEAN_MOTION_DOT = .827E-5
MEAN_MOTION_DDOT = 0

CCSDS_OMM_VERS = 2.0
CREATION_DATE  = 
ORIGINATOR     = 

OBJECT_NAME    = SL-8 R/B
OBJECT_ID      = 1985-006B
CENTER_NAME    = EARTH
REF_FRAME      = TEME
TIME_SYSTEM    = UTC
MEAN_ELEMENT_THEORY = SGP/SGP4

EPOCH          = 2025-12-03T10:17:26.192832
MEAN_MOTION    = 14.37712166
ECCENTRICITY   = .001828
INCLINATION    = 74.0464
RA_OF_ASC_NODE = 78.2647
ARG_OF_PERICENTER = 12.8799
MEAN_ANOMALY   = 56.0713

EPHEMERIS_TYPE = 0
CLASSIFICATION_TYPE = U
NORAD_CAT_ID   = 15483
ELEMENT_SET_NO = 999
REV_AT_EPOCH   = 14019
BSTAR          = .14979E-3
MEAN_MOTION_DOT = .425E-5
MEAN_MOTION_DDOT = 0

CCSDS_OMM_VERS = 2.0
CREATION_DATE  = 
ORIGINATOR     = 

OBJECT_NAME    = SL-12 R/B(2)
OBJECT_ID      = 1985-042D
CENTER_NAME    = EARTH
REF_FRAME      = TEME
TIME_SYSTEM    = UTC
MEAN_ELEMENT_THEORY = SGP/SGP4

EPOCH          = 2025-12-03T07:53:01.356288
MEAN_MOTION    = 14.21946988
ECCENTRICITY   = .0037683
INCLINATION    = 71.1081
RA_OF_ASC_NODE = 291.3020
ARG_OF_PERICENTER = 275.2419
MEAN_ANOMALY   = 192.5064

EPHEMERIS_TYPE = 0
CLASSIFICATION_TYPE = U
NORAD_CAT_ID   = 15772
ELEMENT_SET_NO = 999
REV_AT_EPOCH   = 10069
BSTAR          = .71626E-4
MEAN_MOTION_DOT = .111E-5
MEAN_MOTION_DDOT = 0

CCSDS_OMM_VERS = 2.0
CREATION_DATE  = 
ORIGINATOR     = 

OBJECT_NAME    = SL-14 R/B
OBJECT_ID      = 1985-069B
CENTER_NAME    = EARTH
REF_FRAME      = TEME
TIME_SYSTEM    = UTC
MEAN_ELEMENT_THEORY = SGP/SGP4

EPOCH          = 2025-12-03T11:28:47.809632
MEAN_MOTION    = 14.86305862
ECCENTRICITY   = .0019572
INCLINATION    = 82.5259
RA_OF_ASC_NODE = 115.4093
ARG_OF_PERICENTER = 147.5301
MEAN_ANOMALY   = 212.7124

EPHEMERIS_TYPE = 0
CLASSIFICATION_TYPE = U
NORAD_CAT_ID   = 15945
ELEMENT_SET_NO = 999
REV_AT_EPOCH   = 15854
BSTAR          = .10283E-3
MEAN_MOTION_DOT = .932E-5
MEAN_MOTION_DDOT = 0

CCSDS_OMM_VERS = 2.0
CREATION_DATE  = 
ORIGINATOR     = 

OBJECT_NAME    = SL-16 R/B
OBJECT_ID      = 1985-097B
CENTER_NAME    = EARTH
REF_FRAME      = TEME
TIME_SYSTEM    = UTC
MEAN_ELEMENT_THEORY = SGP/SGP4

EPOCH          = 2025-12-03T11:26:00.694752
MEAN_MOTION    = 14.16581776
ECCENTRICITY   = .0006102
INCLINATION    = 71.0032
RA_OF_ASC_NODE = 343.1060
ARG_OF_PERICENTER = 25.6046
MEAN_ANOMALY   = 126.6681

EPHEMERIS_TYPE = 0
CLASSIFICATION_TYPE = U
NORAD_CAT_ID   = 16182
ELEMENT_SET_NO = 999
REV_AT_EPOCH   = 7360
BSTAR          = -.54573E-4
MEAN_MOTION_DOT = -.157E-5
MEAN_MOTION_DDOT = 0

CCSDS_OMM_VERS = 2.0
CREATION_DATE  = 
ORIGINATOR     = 

OBJECT_NAME    = SL-14 R/B
OBJECT_ID      = 1986-006B
CENTER_NAME    = EARTH
REF_FRAME      = TEME
TIME_SYSTEM    = UTC
MEAN_ELEMENT_THEORY = SGP/SGP4

EPOCH          = 2025-12-03T11:29:35.339136
MEAN_MOTION    = 14.86651698
ECCENTRICITY   = .0075514
INCLINATION    = 82.5267
RA_OF_ASC_NODE = 350.2659
ARG_OF_PERICENTER = 230.9007
MEAN_ANOMALY   = 128.5479

EPHEMERIS_TYPE = 0
CLASSIFICATION_TYPE = U
NORAD_CAT_ID   = 16496
ELEMENT_SET_NO = 999
REV_AT_EPOCH   = 13491
BSTAR          = .11045E-3
MEAN_MOTION_DOT = .1058E-4
MEAN_MOTION_DDOT = 0

CCSDS_OMM_VERS = 2.0
CREATION_DATE  = 
ORIGINATOR     = 

OBJECT_NAME    = COSMOS 1743
OBJECT_ID      = 1986-034A
CENTER_NAME    = EARTH
REF_FRAME      = TEME
TIME_SYSTEM    = UTC
MEAN_ELEMENT_THEORY = SGP/SGP4

EPOCH          = 2025-12-03T11:56:39.596064
MEAN_MOTION    = 15.51418911
ECCENTRICITY   = .0004889
INCLINATION    = 82.5344
RA_OF_ASC_NODE = 174.1862
ARG_OF_PERICENTER = 294.0512
MEAN_ANOMALY   = 66.0228

EPHEMERIS_TYPE = 0
CLASSIFICATION_TYPE = U
NORAD_CAT_ID   = 16719
ELEMENT_SET_NO = 999
REV_AT_EPOCH   = 16530
BSTAR          = .56814E-3
MEAN_MOTION_DOT = .33603E-3
MEAN_MOTION_DDOT = 0

