SL-3 R/B                
1 13403U 82079B   25337.42021685  .00007495  00000+0  31066-3 0  9998
2 13403  81.1457 306.6455 0026739 128.8278 231.5348 15.23415126363032
SL-14 R/B               
1 13553U 82092B   25337.47977294  .00000806  00000+0  88109-4 0  9990
2 13553  82.5687 231.3711 0018832 260.1007 272.9721 14.86540217314636
SL-3 R/B                
1 13819U 83010B   25337.50021891  .00018133  00000+0  40716-3 0  9996
2 13819  81.1027 119.8933 0017600  23.0721 337.1308 15.43071936343099
SL-3 R/B                
1 14208U 83075B   25337.47132355  .00013694  00000+0  39185-3 0  9999
2 14208  97.6096 333.6461 0021711 209.3869 150.6155 15.35841056315379
COSMOS 1536             
1 14699U 84013A   25337.34177152  .00006790  00000+0  29234-3 0  9999
2 14699  82.5464 203.4826 0013211 262.5776  97.3960 15.22355170257951
SL-14 R/B               
1 14820U 84027B   25337.46428922  .00000827  00000+0  92105-4 0  9990
2 14820  82.5409 335.2556 0016531 294.4813  65.4679 14.85858141233348
SL-8 R/B                
1 15483U 85006B   25337.42877538  .00000425  00000+0  14979-3 0  9997
2 15483  74.0464  78.2647 0018280  12.8799  56.0713 14.37712166140192
SL-12 R/B(2)            
1 15772U 85042D   25337.32848792  .00000111  00000+0  71626-4 0  9992
2 15772  71.1081 291.3020 0037683 275.2419 192.5064 14.21946988100691
SL-14 R/B               
1 15945U 85069B   25337.47833113  .00000932  00000+0  10283-3 0  9992
2 15945  82.5259 115.4093 0019572 147.5301 212.7124 14.86305862158540
SL-16 R/B               
1 16182U 85097B   25337.47639693 -.00000157  00000+0 -54573-4 0  9996
2 16182  71.0032 343.1060 0006102  25.6046 126.6681 14.16581776 73604
SL-14 R/B               
1 16496U 86006B   25337.47888124  .00001058  00000+0  11045-3 0  9995
2 16496  82.5267 350.2659 0075514 230.9007 128.5479 14.86651698134919
COSMOS 1743             
1 16719U 86034A   25337.49768051  .00033603  00000+0  56814-3 0  9996
2 16719  82.5344 174.1862 0004889 294.0512  66.0228 15.51418911165308
